start=new Date('2021-10-06T00:00:00.000Z').valueOf();
sats=[{"EPHEMERIS_TYPE":"0","PERIOD":"95.593","TLE_LINE1":"1 48026U 21024BB  21278.35883016 -.00000577  00000-0 -19885-4 0  9999","CENTER_NAME":"EARTH","APOAPSIS":"548.007","PERIAPSIS":"546.551","SEMIMAJOR_AXIS":"6925.414","GP_ID":"186277893","MEAN_ANOMALY":"245.9300","REF_FRAME":"TEME","MEAN_MOTION_DDOT":"0.0000000000000","ELEMENT_SET_NO":"999","DECAY_DATE":null,"CLASSIFICATION_TYPE":"U","RA_OF_ASC_NODE":"32.8357","MEAN_MOTION":"15.06378669","OBJECT_TYPE":"PAYLOAD","TIME_SYSTEM":"UTC","NORAD_CAT_ID":"48026","SITE":"AFETR","ARG_OF_PERICENTER":"114.1798","OBJECT_NAME":"STARLINK-2278","INCLINATION":"53.0163","OBJECT_ID":"2021-024BB","MEAN_MOTION_DOT":"-0.00000577","ECCENTRICITY":"0.00010510","COUNTRY_CODE":"US","EPOCH":"2021-10-05T08:36:42.925824","BSTAR":"-0.00001988500000","FILE":"3145988","LAUNCH_DATE":"2021-03-24","TLE_LINE2":"2 48026  53.0163  32.8357 0001051 114.1798 245.9300 15.06378669 30889","MEAN_ELEMENT_THEORY":"SGP4","REV_AT_EPOCH":"3088","RCS_SIZE":"LARGE"},{"INCLINATION":"53.0567","OBJECT_ID":"2021-024BC","SITE":"AFETR","ARG_OF_PERICENTER":"91.2155","OBJECT_NAME":"STARLINK-2300","FILE":"3145988","LAUNCH_DATE":"2021-03-24","TLE_LINE2":"2 48027  53.0567   7.1871 0001480  91.2155 268.9003 15.06395313 31243","MEAN_ELEMENT_THEORY":"SGP4","RCS_SIZE":"LARGE","REV_AT_EPOCH":"3124","MEAN_MOTION_DOT":"0.00002076","ECCENTRICITY":"0.00014800","COUNTRY_CODE":"US","EPOCH":"2021-10-05T10:50:03.768000","BSTAR":"0.00015826000000","TLE_LINE1":"1 48027U 21024BC  21278.45143250  .00002076  00000-0  15826-3 0  9994","APOAPSIS":"548.253","CENTER_NAME":"EARTH","PERIAPSIS":"546.203","GP_ID":"186276641","SEMIMAJOR_AXIS":"6925.363","MEAN_ANOMALY":"268.9003","REF_FRAME":"TEME","EPHEMERIS_TYPE":"0","PERIOD":"95.592","RA_OF_ASC_NODE":"7.1871","CLASSIFICATION_TYPE":"U","MEAN_MOTION":"15.06395313","OBJECT_TYPE":"PAYLOAD","TIME_SYSTEM":"UTC","NORAD_CAT_ID":"48027","MEAN_MOTION_DDOT":"0.0000000000000","ELEMENT_SET_NO":"999","DECAY_DATE":null},{"OBJECT_NAME":"STARLINK-2264","ARG_OF_PERICENTER":"36.7265","SITE":"AFETR","OBJECT_ID":"2021-024BD","INCLINATION":"53.0426","BSTAR":"-0.06766100000000","ECCENTRICITY":"0.00017630","MEAN_MOTION_DOT":"-0.00987055","EPOCH":"2021-10-06T00:00:00.999648","COUNTRY_CODE":"US","MEAN_ELEMENT_THEORY":"SGP4","REV_AT_EPOCH":"367","RCS_SIZE":"LARGE","FILE":"3146344","TLE_LINE2":"2 48028  53.0426 319.7297 0001763  36.7265 349.4066 15.08255372  3674","LAUNCH_DATE":"2021-03-24","EPHEMERIS_TYPE":"0","PERIOD":"95.475","GP_ID":"186306004","SEMIMAJOR_AXIS":"6919.668","REF_FRAME":"TEME","MEAN_ANOMALY":"349.4066","APOAPSIS":"542.753","CENTER_NAME":"EARTH","TLE_LINE1":"1 48028U 21024BD  21279.00001157 -.00987055  00000-0 -67661-1 0  9999","PERIAPSIS":"540.313","ELEMENT_SET_NO":"999","DECAY_DATE":null,"MEAN_MOTION_DDOT":"0.0000000000000","OBJECT_TYPE":"PAYLOAD","NORAD_CAT_ID":"48028","TIME_SYSTEM":"UTC","CLASSIFICATION_TYPE":"U","RA_OF_ASC_NODE":"319.7297","MEAN_MOTION":"15.08255372"},{"DECAY_DATE":null,"ELEMENT_SET_NO":"999","MEAN_MOTION_DDOT":"0.0000000000000","NORAD_CAT_ID":"48029","TIME_SYSTEM":"UTC","OBJECT_TYPE":"PAYLOAD","MEAN_MOTION":"15.06390392","CLASSIFICATION_TYPE":"U","RA_OF_ASC_NODE":"27.6185","PERIOD":"95.593","EPHEMERIS_TYPE":"0","REF_FRAME":"TEME","MEAN_ANOMALY":"252.1828","GP_ID":"186277643","SEMIMAJOR_AXIS":"6925.378","PERIAPSIS":"546.422","CENTER_NAME":"EARTH","APOAPSIS":"548.064","TLE_LINE1":"1 48029U 21024BE  21278.35744882  .00000741  00000-0  68630-4 0  9992","BSTAR":"0.00006863000000","EPOCH":"2021-10-05T08:34:43.578048","COUNTRY_CODE":"US","ECCENTRICITY":"0.00011850","MEAN_MOTION_DOT":"0.00000741","REV_AT_EPOCH":"3101","RCS_SIZE":"LARGE","MEAN_ELEMENT_THEORY":"SGP4","LAUNCH_DATE":"2021-03-24","TLE_LINE2":"2 48029  53.0576  27.6185 0001185 107.9291 252.1828 15.06390392 31015","FILE":"3145988","OBJECT_NAME":"STARLINK-2299","ARG_OF_PERICENTER":"107.9291","SITE":"AFETR","OBJECT_ID":"2021-024BE","INCLINATION":"53.0576"},{"MEAN_MOTION_DDOT":"0.0000000000000","DECAY_DATE":null,"ELEMENT_SET_NO":"999","CLASSIFICATION_TYPE":"U","RA_OF_ASC_NODE":"33.9694","MEAN_MOTION":"15.06400397","OBJECT_TYPE":"PAYLOAD","TIME_SYSTEM":"UTC","NORAD_CAT_ID":"48030","EPHEMERIS_TYPE":"0","PERIOD":"95.592","TLE_LINE1":"1 48030U 21024BF  21278.05290027  .00000662  00000-0  63296-4 0  9993","CENTER_NAME":"EARTH","APOAPSIS":"547.892","PERIAPSIS":"546.533","SEMIMAJOR_AXIS":"6925.347","GP_ID":"186277394","MEAN_ANOMALY":"252.4726","REF_FRAME":"TEME","MEAN_MOTION_DOT":"0.00000662","ECCENTRICITY":"0.00009810","COUNTRY_CODE":"US","EPOCH":"2021-10-05T01:16:10.583328","BSTAR":"0.00006329600000","FILE":"3145988","TLE_LINE2":"2 48030  53.0559  33.9694 0000981 107.6370 252.4726 15.06400397 30837","LAUNCH_DATE":"2021-03-24","MEAN_ELEMENT_THEORY":"SGP4","REV_AT_EPOCH":"3083","RCS_SIZE":"LARGE","SITE":"AFETR","ARG_OF_PERICENTER":"107.6370","OBJECT_NAME":"STARLINK-2268","INCLINATION":"53.0559","OBJECT_ID":"2021-024BF"},{"EPHEMERIS_TYPE":"0","PERIOD":"91.533","GP_ID":"186306756","SEMIMAJOR_AXIS":"6727.872","REF_FRAME":"TEME","MEAN_ANOMALY":"242.1816","APOAPSIS":"352.777","CENTER_NAME":"EARTH","TLE_LINE1":"1 48031U 21024BG  21279.00001157  .00026006  00000-0  18897-3 0  9990","PERIAPSIS":"346.696","ELEMENT_SET_NO":"999","DECAY_DATE":null,"MEAN_MOTION_DDOT":"0.0000000000000","OBJECT_TYPE":"PAYLOAD","NORAD_CAT_ID":"48031","TIME_SYSTEM":"UTC","CLASSIFICATION_TYPE":"U","RA_OF_ASC_NODE":"312.1799","MEAN_MOTION":"15.73208294","OBJECT_NAME":"STARLINK-2267","ARG_OF_PERICENTER":"343.6261","SITE":"AFETR","OBJECT_ID":"2021-024BG","INCLINATION":"53.0438","BSTAR":"0.00018897000000","ECCENTRICITY":"0.00045190","MEAN_MOTION_DOT":"0.00026006","EPOCH":"2021-10-06T00:00:00.999648","COUNTRY_CODE":"US","MEAN_ELEMENT_THEORY":"SGP4","RCS_SIZE":"LARGE","REV_AT_EPOCH":"372","FILE":"3146344","TLE_LINE2":"2 48031  53.0438 312.1799 0004519 343.6261 242.1816 15.73208294  3724","LAUNCH_DATE":"2021-03-24"},{"INCLINATION":"53.0437","OBJECT_ID":"2021-024BH","SITE":"AFETR","ARG_OF_PERICENTER":"339.5432","OBJECT_NAME":"STARLINK-2297","FILE":"3146344","TLE_LINE2":"2 48032  53.0437 312.1760 0004674 339.5432 246.8885 15.73191943  3727","LAUNCH_DATE":"2021-03-24","MEAN_ELEMENT_THEORY":"SGP4","REV_AT_EPOCH":"372","RCS_SIZE":"LARGE","MEAN_MOTION_DOT":"0.00058116","ECCENTRICITY":"0.00046740","COUNTRY_CODE":"US","EPOCH":"2021-10-06T00:00:00.999648","BSTAR":"0.00041551000000","TLE_LINE1":"1 48032U 21024BH  21279.00001157  .00058116  00000-0  41551-3 0  9991","APOAPSIS":"352.928","CENTER_NAME":"EARTH","PERIAPSIS":"346.639","SEMIMAJOR_AXIS":"6727.918","GP_ID":"186305504","MEAN_ANOMALY":"246.8885","REF_FRAME":"TEME","EPHEMERIS_TYPE":"0","PERIOD":"91.534","CLASSIFICATION_TYPE":"U","RA_OF_ASC_NODE":"312.1760","MEAN_MOTION":"15.73191943","OBJECT_TYPE":"PAYLOAD","TIME_SYSTEM":"UTC","NORAD_CAT_ID":"48032","MEAN_MOTION_DDOT":"0.0000000000000","DECAY_DATE":null,"ELEMENT_SET_NO":"999"},{"ECCENTRICITY":"0.00012500","MEAN_MOTION_DOT":"0.00001932","EPOCH":"2021-10-05T10:08:53.827872","COUNTRY_CODE":"US","BSTAR":"0.00014858000000","FILE":"3145988","TLE_LINE2":"2 48033  53.0571  27.3323 0001250 105.0892 255.0236 15.06392175 31022","LAUNCH_DATE":"2021-03-24","MEAN_ELEMENT_THEORY":"SGP4","RCS_SIZE":"LARGE","REV_AT_EPOCH":"3102","ARG_OF_PERICENTER":"105.0892","SITE":"AFETR","OBJECT_NAME":"STARLINK-2286","OBJECT_ID":"2021-024BJ","INCLINATION":"53.0571","MEAN_MOTION_DDOT":"0.0000000000000","ELEMENT_SET_NO":"999","DECAY_DATE":null,"RA_OF_ASC_NODE":"27.3323","CLASSIFICATION_TYPE":"U","MEAN_MOTION":"15.06392175","OBJECT_TYPE":"PAYLOAD","NORAD_CAT_ID":"48033","TIME_SYSTEM":"UTC","EPHEMERIS_TYPE":"0","PERIOD":"95.593","APOAPSIS":"548.103","CENTER_NAME":"EARTH","TLE_LINE1":"1 48033U 21024BJ  21278.42284523  .00001932  00000-0  14858-3 0  9991","PERIAPSIS":"546.372","SEMIMAJOR_AXIS":"6925.373","GP_ID":"186277144","REF_FRAME":"TEME","MEAN_ANOMALY":"255.0236"},{"MEAN_ELEMENT_THEORY":"SGP4","REV_AT_EPOCH":"3100","RCS_SIZE":"LARGE","FILE":"3145988","LAUNCH_DATE":"2021-03-24","TLE_LINE2":"2 48034  53.0571  27.8781 0001265 100.9661 259.1471 15.06391140 31005","BSTAR":"0.00011941000000","ECCENTRICITY":"0.00012650","MEAN_MOTION_DOT":"0.00001497","EPOCH":"2021-10-05T07:09:47.636064","COUNTRY_CODE":"US","OBJECT_ID":"2021-024BK","INCLINATION":"53.0571","OBJECT_NAME":"STARLINK-2288","ARG_OF_PERICENTER":"100.9661","SITE":"AFETR","OBJECT_TYPE":"PAYLOAD","NORAD_CAT_ID":"48034","TIME_SYSTEM":"UTC","RA_OF_ASC_NODE":"27.8781","CLASSIFICATION_TYPE":"U","MEAN_MOTION":"15.06391140","DECAY_DATE":null,"ELEMENT_SET_NO":"999","MEAN_MOTION_DDOT":"0.0000000000000","GP_ID":"186277894","SEMIMAJOR_AXIS":"6925.376","REF_FRAME":"TEME","MEAN_ANOMALY":"259.1471","APOAPSIS":"548.117","CENTER_NAME":"EARTH","TLE_LINE1":"1 48034U 21024BK  21278.29846801  .00001497  00000-0  11941-3 0  9996","PERIAPSIS":"546.365","EPHEMERIS_TYPE":"0","PERIOD":"95.593"},{"DECAY_DATE":null,"ELEMENT_SET_NO":"999","MEAN_MOTION_DDOT":"0.0000000000000","OBJECT_TYPE":"PAYLOAD","TIME_SYSTEM":"UTC","NORAD_CAT_ID":"48035","CLASSIFICATION_TYPE":"U","RA_OF_ASC_NODE":"312.1772","MEAN_MOTION":"15.73172486","EPHEMERIS_TYPE":"0","PERIOD":"91.535","SEMIMAJOR_AXIS":"6727.974","GP_ID":"186307257","MEAN_ANOMALY":"252.9599","REF_FRAME":"TEME","TLE_LINE1":"1 48035U 21024BL  21279.00001157  .00071454  00000-0  50937-3 0  9992","CENTER_NAME":"EARTH","APOAPSIS":"353.500","PERIAPSIS":"346.177","BSTAR":"0.00050937000000","MEAN_MOTION_DOT":"0.00071454","ECCENTRICITY":"0.00054420","COUNTRY_CODE":"US","EPOCH":"2021-10-06T00:00:00.999648","MEAN_ELEMENT_THEORY":"SGP4","RCS_SIZE":"MEDIUM","REV_AT_EPOCH":"367","FILE":"3146344","LAUNCH_DATE":"2021-03-24","TLE_LINE2":"2 48035  53.0439 312.1772 0005442 335.3635 252.9599 15.73172486  3673","OBJECT_NAME":"STARLINK-2287","SITE":"AFETR","ARG_OF_PERICENTER":"335.3635","INCLINATION":"53.0439","OBJECT_ID":"2021-024BL"}];
